CTC1_L_00500008-07
1 55388U 23873BV  26037.47807870  .00000000  00000+0  00000-0 0  9990
2 55388 101.2000  84.0000 0000000   0.0000 312.0000 12.53473282    11
CTC1_L_00500008-08
1 55389U 24374GD  26037.47807870  .00000000  00000+0  00000-0 0  9998
2 55389 101.2000  84.0000 0000000   0.0000 357.0000 12.53473282    11
CTC1_L_00500009-01
1 55390U 26477BU  26037.47807870  .00000000  00000+0  00000-0 0  9996
2 55390 101.2000  96.0000 0000000   0.0000  48.0000 12.53473282    13
CTC1_L_00500009-02
1 55391U 22602AT  26037.47807870  .00000000  00000+0  00000-0 0  9993
2 55391 101.2000  96.0000 0000000   0.0000  93.0000 12.53473282    14
CTC1_L_00500009-03
1 55392U 24847IL  26037.47807870  .00000000  00000+0  00000-0 0  9997
2 55392 101.2000  96.0000 0000000   0.0000 138.0000 12.53473282    15
CTC1_L_00500009-04
1 55393U 24441VI  26037.47807870  .00000000  00000+0  00000-0 0  9998
2 55393 101.2000  96.0000 0000000   0.0000 183.0000 12.53473282    16
CTC1_L_00500009-05
1 55394U 22449IK  26037.47807870  .00000000  00000+0  00000-0 0  9995
2 55394 101.2000  96.0000 0000000   0.0000 228.0000 12.53473282    17
CTC1_L_00500009-06
1 55395U 22326BG  26037.47807870  .00000000  00000+0  00000-0 0  9990
2 55395 101.2000  96.0000 0000000   0.0000 273.0000 12.53473282    18
CTC1_L_00500009-07
1 55396U 24313B   26037.47807870  .00000000  00000+0  00000-0 0  9999
2 55396 101.2000  96.0000 0000000   0.0000 318.0000 12.53473282    19
CTC1_L_00500009-08
1 55397U 22286JR  26037.47807870  .00000000  00000+0  00000-0 0  9997
2 55397 101.2000  96.0000 0000000   0.0000   3.0000 12.53473282    11
CTC1_L_00500010-01
1 55398U 26813BC  26037.47807870  .00000000  00000+0  00000-0 0  9998
2 55398 101.2000 108.0000 0000000   0.0000  54.0000 12.53473282    12
CTC1_L_00500010-02
1 55399U 22350NJ  26037.47807870  .00000000  00000+0  00000-0 0  9991
2 55399 101.2000 108.0000 0000000   0.0000  99.0000 12.53473282    12
CTC1_L_00500010-03
1 55400U 24472XM  26037.47807870  .00000000  00000+0  00000-0 0  9991
2 55400 101.2000 108.0000 0000000   0.0000 144.0000 12.53473282    16
CTC1_L_00500010-04
1 55401U 22250JU  26037.47807870  .00000000  00000+0  00000-0 0  9994
2 55401 101.2000 108.0000 0000000   0.0000 189.0000 12.53473282    16
CTC1_L_00500010-05
1 55402U 26109FV  26037.47807870  .00000000  00000+0  00000-0 0  9992
2 55402 101.2000 108.0000 0000000   0.0000 234.0000 12.53473282    18
CTC1_L_00500010-06
1 55403U 25189VC  26037.47807870  .00000000  00000+0  00000-0 0  9990
2 55403 101.2000 108.0000 0000000   0.0000 279.0000 12.53473282    18
CTC1_L_00500010-07
1 55404U 25715IS  26037.47807870  .00000000  00000+0  00000-0 0  9996
2 55404 101.2000 108.0000 0000000   0.0000 324.0000 12.53473282    10
CTC1_L_00500010-08
1 55405U 26586U   26037.47807870  .00000000  00000+0  00000-0 0  9994
2 55405 101.2000 108.0000 0000000   0.0000   9.0000 12.53473282    11
CTC1_L_00500011-01
1 55406U 25686WI  26037.47807870  .00000000  00000+0  00000-0 0  9995
2 55406 101.2000 120.0000 0000000   0.0000  60.0000 12.53473282    13
CTC1_L_00500011-02
1 55407U 22914UA  26037.47807870  .00000000  00000+0  00000-0 0  9997
2 55407 101.2000 120.0000 0000000   0.0000 105.0000 12.53473282    14
CTC1_L_00500011-03
1 55408U 22183NE  26037.47807870  .00000000  00000+0  00000-0 0  9996
2 55408 101.2000 120.0000 0000000   0.0000 150.0000 12.53473282    15
CTC1_L_00500011-04
1 55409U 23885JS  26037.47807870  .00000000  00000+0  00000-0 0  9997
2 55409 101.2000 120.0000 0000000   0.0000 195.0000 12.53473282    15
CTC1_L_00500011-05
1 55410U 22482U   26037.47807870  .00000000  00000+0  00000-0 0  9991
2 55410 101.2000 120.0000 0000000   0.0000 240.0000 12.53473282    18
CTC1_L_00500011-06
1 55411U 23295YD  26037.47807870  .00000000  00000+0  00000-0 0  9995
2 55411 101.2000 120.0000 0000000   0.0000 285.0000 12.53473282    18
CTC1_L_00500011-07
1 55412U 24018YY  26037.47807870  .00000000  00000+0  00000-0 0  9990
2 55412 101.2000 120.0000 0000000   0.0000 330.0000 12.53473282    10
CTC1_L_00500011-08
1 55413U 23494WR  26037.47807870  .00000000  00000+0  00000-0 0  9998
2 55413 101.2000 120.0000 0000000   0.0000  15.0000 12.53473282    11
CTC1_L_00500012-01
1 55414U 24311TW  26037.47807870  .00000000  00000+0  00000-0 0  9998
2 55414 101.2000 132.0000 0000000   0.0000  66.0000 12.53473282    11
CTC1_L_00500012-02
1 55415U 22798NS  26037.47807870  .00000000  00000+0  00000-0 0  9996
2 55415 101.2000 132.0000 0000000   0.0000 111.0000 12.53473282    13
CTC1_L_00500012-03
1 55416U 26500EX  26037.47807870  .00000000  00000+0  00000-0 0  9992
2 55416 101.2000 132.0000 0000000   0.0000 156.0000 12.53473282    13
CTC1_L_00500012-04
1 55417U 25950LO  26037.47807870  .00000000  00000+0  00000-0 0  9991
2 55417 101.2000 132.0000 0000000   0.0000 201.0000 12.53473282    15
CTC1_L_00500012-05
1 55418U 24004BE  26037.47807870  .00000000  00000+0  00000-0 0  9991
2 55418 101.2000 132.0000 0000000   0.0000 246.0000 12.53473282    15
CTC1_L_00500012-06
1 55419U 24703GI  26037.47807870  .00000000  00000+0  00000-0 0  9998
2 55419 101.2000 132.0000 0000000   0.0000 291.0000 12.53473282    16
CTC1_L_00500012-07
1 55420U 23956DQ  26037.47807870  .00000000  00000+0  00000-0 0  9999
2 55420 101.2000 132.0000 0000000   0.0000 336.0000 12.53473282    18
CTC1_L_00500012-08
1 55421U 26534OU  26037.47807870  .00000000  00000+0  00000-0 0  9995
2 55421 101.2000 132.0000 0000000   0.0000  21.0000 12.53473282    10
CTC1_L_00500013-01
1 55422U 23393QH  26037.47807870  .00000000  00000+0  00000-0 0  9996
2 55422 101.2000 144.0000 0000000   0.0000  72.0000 12.53473282    10
CTC1_L_00500013-02
1 55423U 23709WG  26037.47807870  .00000000  00000+0  00000-0 0  9998
2 55423 101.2000 144.0000 0000000   0.0000 117.0000 12.53473282    11
CTC1_L_00500013-03
1 55424U 23161KM  26037.47807870  .00000000  00000+0  00000-0 0  9991
2 55424 101.2000 144.0000 0000000   0.0000 162.0000 12.53473282    12
CTC1_L_00500013-04
1 55425U 23157WU  26037.47807870  .00000000  00000+0  00000-0 0  9997
2 55425 101.2000 144.0000 0000000   0.0000 207.0000 12.53473282    13
CTC1_L_00500013-05
1 55426U 23494SS  26037.47807870  .00000000  00000+0  00000-0 0  9992
2 55426 101.2000 144.0000 0000000   0.0000 252.0000 12.53473282    14
CTC1_L_00500013-06
1 55427U 23586ZB  26037.47807870  .00000000  00000+0  00000-0 0  9995
2 55427 101.2000 144.0000 0000000   0.0000 297.0000 12.53473282    14
CTC1_L_00500013-07
1 55428U 24791RC  26037.47807870  .00000000  00000+0  00000-0 0  9995
2 55428 101.2000 144.0000 0000000   0.0000 342.0000 12.53473282    16
CTC1_L_00500013-08
1 55429U 24708PK  26037.47807870  .00000000  00000+0  00000-0 0  9994
2 55429 101.2000 144.0000 0000000   0.0000  27.0000 12.53473282    17
CTC1_L_00500014-01
1 55430U 22587WM  26037.47807870  .00000000  00000+0  00000-0 0  9999
2 55430 101.2000 156.0000 0000000   0.0000  78.0000 12.53473282    18
CTC1_L_00500014-02
1 55431U 24225HB  26037.47807870  .00000000  00000+0  00000-0 0  9991
2 55431 101.2000 156.0000 0000000   0.0000 123.0000 12.53473282    10
CTC1_L_00500014-03
1 55432U 24554PJ  26037.47807870  .00000000  00000+0  00000-0 0  9997
2 55432 101.2000 156.0000 0000000   0.0000 168.0000 12.53473282    10
CTC1_L_00500014-04
1 55433U 23647BN  26037.47807870  .00000000  00000+0  00000-0 0  9990
2 55433 101.2000 156.0000 0000000   0.0000 213.0000 12.53473282    12
CTC1_L_00500014-05
1 55434U 24839JW  26037.47807870  .00000000  00000+0  00000-0 0  9995
2 55434 101.2000 156.0000 0000000   0.0000 258.0000 12.53473282    12
CTC1_L_00500014-06
1 55435U 23798ZS  26037.47807870  .00000000  00000+0  00000-0 0  9999
2 55435 101.2000 156.0000 0000000   0.0000 303.0000 12.53473282    14
CTC1_L_00500014-07
1 55436U 24008TF  26037.47807870  .00000000  00000+0  00000-0 0  9995
2 55436 101.2000 156.0000 0000000   0.0000 348.0000 12.53473282    14
CTC1_L_00500014-08
1 55437U 26875MI  26037.47807870  .00000000  00000+0  00000-0 0  9990
2 55437 101.2000 156.0000 0000000   0.0000  33.0000 12.53473282    16
CTC1_L_00500015-01
1 55438U 22768KF  26037.47807870  .00000000  00000+0  00000-0 0  9998
2 55438 101.2000 168.0000 0000000   0.0000  84.0000 12.53473282    16
CTC1_L_00500015-02
1 55439U 26448MX  26037.47807870  .00000000  00000+0  00000-0 0  9998
2 55439 101.2000 168.0000 0000000   0.0000 129.0000 12.53473282    17
CTC1_L_00500015-03
1 55440U 24788EO  26037.47807870  .00000000  00000+0  00000-0 0  9995
2 55440 101.2000 168.0000 0000000   0.0000 174.0000 12.53473282    19
CTC1_L_00500015-04
1 55441U 26525UD  26037.47807870  .00000000  00000+0  00000-0 0  9997
2 55441 101.2000 168.0000 0000000   0.0000 219.0000 12.53473282    10
CTC1_L_00500015-05
1 55442U 26333ZS  26037.47807870  .00000000  00000+0  00000-0 0  9995
2 55442 101.2000 168.0000 0000000   0.0000 264.0000 12.53473282    11
CTC1_L_00500015-06
1 55443U 24764WQ  26037.47807870  .00000000  00000+0  00000-0 0  9992
2 55443 101.2000 168.0000 0000000   0.0000 309.0000 12.53473282    12
CTC1_L_00500015-07
1 55444U 25484EW  26037.47807870  .00000000  00000+0  00000-0 0  9993
2 55444 101.2000 168.0000 0000000   0.0000 354.0000 12.53473282    13
CTC1_L_00500015-08
1 55445U 22348YO  26037.47807870  .00000000  00000+0  00000-0 0  9990
2 55445 101.2000 168.0000 0000000   0.0000  39.0000 12.53473282    14
CTC1_L_00500016-01
1 55446U 25544IH  26037.47807870  .00000000  00000+0  00000-0 0  9992
2 55446 101.2000 180.0000 0000000   0.0000  90.0000 12.53473282    16
CTC1_L_00500016-02
1 55447U 25003OZ  26037.47807870  .00000000  00000+0  00000-0 0  9993
2 55447 101.2000 180.0000 0000000   0.0000 135.0000 12.53473282    17
CTC1_L_00500016-03
1 55448U 23007XQ  26037.47807870  .00000000  00000+0  00000-0 0  9996
2 55448 101.2000 180.0000 0000000   0.0000 180.0000 12.53473282    18
CTC1_L_00500016-04
1 55449U 26267FX  26037.47807870  .00000000  00000+0  00000-0 0  9998
2 55449 101.2000 180.0000 0000000   0.0000 225.0000 12.53473282    19
